{"type": "FeatureCollection", "features": [ {"type": "Feature", "properties": {"norad_id": 31915, "name": "FENGYUN 1C DEB", "group": "fengyun-1c-debris", "lat": -56.10499960423573, "lon": 23.902965188767208, "alt_km": 799.3932117945815, "timestamp": "2025-12-19T04:59:48.590760+00:00", "meta": {"OBJECT_NAME": "FENGYUN 1C DEB", "OBJECT_ID": "1999-025CLS", "EPOCH": "2025-12-18T07:13:20.180928", "MEAN_MOTION": 14.16229822, "ECCENTRICITY": 0.01011151, "INCLINATION": 98.6312, "RA_OF_ASC_NODE": 9.9572, "ARG_OF_PERICENTER": 253.9486, "MEAN_ANOMALY": 105.0535, "EPHEMERIS_TYPE": 0, "CLASSIFICATION_TYPE": "U", "NORAD_CAT_ID": 31915, "ELEMENT_SET_NO": 999, "REV_AT_EPOCH": 64186, "BSTAR": 0.00067803261, "MEAN_MOTION_DOT": 1.368e-05, "MEAN_MOTION_DDOT": 0}, "tle": {"line1": "1 31915U 99025CLS 25352.30092802  .00001368  00000+0  67803-3 0  9999", "line2": "2 31915  98.6312   9.9572 0101115 253.9486 105.0535 14.16229822641869"}}, "geometry": {"type": "Point", "coordinates": [23.902965188767208, -56.10499960423573]}}, {"type": "Feature", "properties": {"norad_id": 31916, "name": "FENGYUN 1C DEB", "group": "fengyun-1c-debris", "lat": 15.393016171767766, "lon": -98.51854723559298, "alt_km": 775.6513551737971, "timestamp": "2025-12-19T04:59:48.590771+00:00", "meta": {"OBJECT_NAME": "FENGYUN 1C DEB", "OBJECT_ID": "1999-025CLT", "EPOCH": "2025-12-15T23:08:21.633792", "MEAN_MOTION": 14.32538908, "ECCENTRICITY": 0.01460081, "INCLINATION": 99.3305, "RA_OF_ASC_NODE": 75.3969, "ARG_OF_PERICENTER": 87.3339, "MEAN_ANOMALY": 274.4545, "EPHEMERIS_TYPE": 0, "CLASSIFICATION_TYPE": "U", "NORAD_CAT_ID": 31916, "ELEMENT_SET_NO": 999, "REV_AT_EPOCH": 64573, "BSTAR": 0.0009298635, "MEAN_MOTION_DOT": 2.787e-05, "MEAN_MOTION_DDOT": 0}, "tle": {"line1": "1 31916U 99025CLT 25349.96413928  .00002787  00000+0  92986-3 0  9990", "line2": "2 31916  99.3305  75.3969 0146008  87.3339 274.4545 14.32538908645731"}}, "geometry": {"type": "Point", "coordinates": [-98.51854723559298, 15.393016171767766]}}, {"type": "Feature", "properties": {"norad_id": 31917, "name": "FENGYUN 1C DEB", "group": "fengyun-1c-debris", "lat": -35.330631379255905, "lon": 159.8312283283833, "alt_km": 699.6683499466208, "timestamp": "2025-12-19T04:59:48.590781+00:00", "meta": {"OBJECT_NAME": "FENGYUN 1C DEB", "OBJECT_ID": "1999-025CLU", "EPOCH": "2025-12-17T05:31:01.156800", "MEAN_MOTION": 14.37643613, "ECCENTRICITY": 0.01890227, "INCLINATION": 98.3604, "RA_OF_ASC_NODE": 343.8894, "ARG_OF_PERICENTER": 279.8643, "MEAN_ANOMALY": 144.671, "EPHEMERIS_TYPE": 0, "CLASSIFICATION_TYPE": "U", "NORAD_CAT_ID": 31917, "ELEMENT_SET_NO": 999, "REV_AT_EPOCH": 96486, "BSTAR": 0.0004541515, "MEAN_MOTION_DOT": 1.625e-05, "MEAN_MOTION_DDOT": 0}, "tle": {"line1": "1 31917U 99025CLU 25351.22987450  .00001625  00000+0  45415-3 0  9994", "line2": "2 31917  98.3604 343.8894 0189022 279.8643 144.6710 14.37643613964867"}}, "geometry": {"type": "Point", "coordinates": [159.8312283283833, -35.330631379255905]}}, {"type": "Feature", "properties": {"norad_id": 31919, "name": "FENGYUN 1C DEB", "group": "fengyun-1c-debris", "lat": -55.70229152973819, "lon": -57.503775551944756, "alt_km": 698.5529039164867, "timestamp": "2025-12-19T04:59:48.590791+00:00", "meta": {"OBJECT_NAME": "FENGYUN 1C DEB", "OBJECT_ID": "1999-025CLW", "EPOCH": "2025-12-17T15:26:20.465952", "MEAN_MOTION": 14.45773172, "ECCENTRICITY": 0.01023496, "INCLINATION": 99.1018, "RA_OF_ASC_NODE": 134.4115, "ARG_OF_PERICENTER": 192.0554, "MEAN_ANOMALY": 183.4001, "EPHEMERIS_TYPE": 0, "CLASSIFICATION_TYPE": "U", "NORAD_CAT_ID": 31919, "ELEMENT_SET_NO": 999, "REV_AT_EPOCH": 97152, "BSTAR": 0.0004018178, "MEAN_MOTION_DOT": 1.465e-05, "MEAN_MOTION_DDOT": 0}, "tle": {"line1": "1 31919U 99025CLW 25351.64329243  .00001465  00000+0  40182-3 0  9990", "line2": "2 31919  99.1018 134.4115 0102349 192.0554 183.4001 14.45773172971529"}}, "geometry": {"type": "Point", "coordinates": [-57.503775551944756, -55.70229152973819]}}, {"type": "Feature", "properties": {"norad_id": 31921, "name": "FENGYUN 1C DEB", "group": "fengyun-1c-debris", "lat": 72.67898310025512, "lon": -146.39912569989468, "alt_km": 1120.7819190847858, "timestamp": "2025-12-19T04:59:48.590801+00:00", "meta": {"OBJECT_NAME": "FENGYUN 1C DEB", "OBJECT_ID": "1999-025CLY", "EPOCH": "2025-12-14T11:07:39.123264", "MEAN_MOTION": 13.75272567, "ECCENTRICITY": 0.02016687, "INCLINATION": 99.3382, "RA_OF_ASC_NODE": 240.7973, "ARG_OF_PERICENTER": 260.4861, "MEAN_ANOMALY": 97.3447, "EPHEMERIS_TYPE": 0, "CLASSIFICATION_TYPE": "U", "NORAD_CAT_ID": 31921, "ELEMENT_SET_NO": 999, "REV_AT_EPOCH": 92330, "BSTAR": 0.001077077, "MEAN_MOTION_DOT": 1.153e-05, "MEAN_MOTION_DDOT": 0}, "tle": {"line1": "1 31921U 99025CLY 25348.46364726  .00001153  00000+0  10771-2 0  9998", "line2": "2 31921  99.3382 240.7973 0201668 260.4861  97.3447 13.75272567923300"}}, "geometry": {"type": "Point", "coordinates": [-146.39912569989468, 72.67898310025512]}}, {"type": "Feature", "properties": {"norad_id": 31922, "name": "FENGYUN 1C DEB", "group": "fengyun-1c-debris", "lat": -31.920797798705447, "lon": 158.71562230611312, "alt_km": 1054.6427435117503, "timestamp": "2025-12-19T04:59:48.590811+00:00", "meta": {"OBJECT_NAME": "FENGYUN 1C DEB", "OBJECT_ID": "1999-025CLZ", "EPOCH": "2025-12-17T22:47:28.204800", "MEAN_MOTION": 13.8662582, "ECCENTRICITY": 0.01614332, "INCLINATION": 98.804, "RA_OF_ASC_NODE": 343.0708, "ARG_OF_PERICENTER": 12.3294, "MEAN_ANOMALY": 41.4764, "EPHEMERIS_TYPE": 0, "CLASSIFICATION_TYPE": "U", "NORAD_CAT_ID": 31922, "ELEMENT_SET_NO": 999, "REV_AT_EPOCH": 93089, "BSTAR": 0.0013428735, "MEAN_MOTION_DOT": 1.69e-05, "MEAN_MOTION_DDOT": 0}, "tle": {"line1": "1 31922U 99025CLZ 25351.94963200  .00001690  00000+0  13429-2 0  9997", "line2": "2 31922  98.8040 343.0708 0161433  12.3294  41.4764 13.86625820930898"}}, "geometry": {"type": "Point", "coordinates": [158.71562230611312, -31.920797798705447]}}, {"type": "Feature", "properties": {"norad_id": 31923, "name": "FENGYUN 1C DEB", "group": "fengyun-1c-debris", "lat": 26.008086879249582, "lon": 81.87106439074796, "alt_km": 1083.6211321918254, "timestamp": "2025-12-19T04:59:48.590822+00:00", "meta": {"OBJECT_NAME": "FENGYUN 1C DEB", "OBJECT_ID": "1999-025CMA", "EPOCH": "2025-12-17T05:01:00.135840", "MEAN_MOTION": 13.54901238, "ECCENTRICITY": 0.02999439, "INCLINATION": 98.4389, "RA_OF_ASC_NODE": 84.3126, "ARG_OF_PERICENTER": 292.0922, "MEAN_ANOMALY": 64.8626, "EPHEMERIS_TYPE": 0, "CLASSIFICATION_TYPE": "U", "NORAD_CAT_ID": 31923, "ELEMENT_SET_NO": 999, "REV_AT_EPOCH": 63695, "BSTAR": 0.0013205005, "MEAN_MOTION_DOT": 1.173e-05, "MEAN_MOTION_DDOT": 0}, "tle": {"line1": "1 31923U 99025CMA 25351.20902935  .00001173  00000+0  13205-2 0  9993", "line2": "2 31923  98.4389  84.3126 0299943 292.0922  64.8626 13.54901238636954"}}, "geometry": {"type": "Point", "coordinates": [81.87106439074796, 26.008086879249582]}}, {"type": "Feature", "properties": {"norad_id": 31924, "name": "FENGYUN 1C DEB", "group": "fengyun-1c-debris", "lat": 36.104549008704794, "lon": -24.125074030723137, "alt_km": 924.7525143081511, "timestamp": "2025-12-19T04:59:48.590833+00:00", "meta": {"OBJECT_NAME": "FENGYUN 1C DEB", "OBJECT_ID": "1999-025CMB", "EPOCH": "2025-12-18T08:57:30.962592", "MEAN_MOTION": 13.63923295, "ECCENTRICITY": 0.02726336, "INCLINATION": 98.4006, "RA_OF_ASC_NODE": 148.9654, "ARG_OF_PERICENTER": 81.9768, "MEAN_ANOMALY": 281.2217, "EPHEMERIS_TYPE": 0, "CLASSIFICATION_TYPE": "U", "NORAD_CAT_ID": 31924, "ELEMENT_SET_NO": 999, "REV_AT_EPOCH": 91544, "BSTAR": 0.0011126992, "MEAN_MOTION_DOT": 1.104e-05, "MEAN_MOTION_DDOT": 0}, "tle": {"line1": "1 31924U 99025CMB 25352.37327503  .00001104  00000+0  11127-2 0  9990", "line2": "2 31924  98.4006 148.9654 0272633  81.9768 281.2217 13.63923295915446"}}, "geometry": {"type": "Point", "coordinates": [-24.125074030723137, 36.104549008704794]}}, {"type": "Feature", "properties": {"norad_id": 31926, "name": "FENGYUN 1C DEB", "group": "fengyun-1c-debris", "lat": -33.23983609159854, "lon": 94.5722989136522, "alt_km": 795.7828042272395, "timestamp": "2025-12-19T04:59:48.590843+00:00", "meta": {"OBJECT_NAME": "FENGYUN 1C DEB", "OBJECT_ID": "1999-025CMD", "EPOCH": "2025-12-18T05:39:27.588672", "MEAN_MOTION": 14.3079156, "ECCENTRICITY": 0.0039691, "INCLINATION": 98.9577, "RA_OF_ASC_NODE": 87.6374, "ARG_OF_PERICENTER": 237.7305, "MEAN_ANOMALY": 122.0028, "EPHEMERIS_TYPE": 0, "CLASSIFICATION_TYPE": "U", "NORAD_CAT_ID": 31926, "ELEMENT_SET_NO": 999, "REV_AT_EPOCH": 95306, "BSTAR": 0.0020124145, "MEAN_MOTION_DOT": 5.275e-05, "MEAN_MOTION_DDOT": 0}, "tle": {"line1": "1 31926U 99025CMD 25352.23573598  .00005275  00000+0  20124-2 0  9994", "line2": "2 31926  98.9577  87.6374 0039691 237.7305 122.0028 14.30791560953062"}}, "geometry": {"type": "Point", "coordinates": [94.5722989136522, -33.23983609159854]}}, {"type": "Feature", "properties": {"norad_id": 31929, "name": "FENGYUN 1C DEB", "group": "fengyun-1c-debris", "lat": 19.445282313877, "lon": -54.195674850871704, "alt_km": 804.6526851463186, "timestamp": "2025-12-19T04:59:48.590853+00:00", "meta": {"OBJECT_NAME": "FENGYUN 1C DEB", "OBJECT_ID": "1999-025CME", "EPOCH": "2025-12-12T14:57:05.736384", "MEAN_MOTION": 14.34936907, "ECCENTRICITY": 0.0074244, "INCLINATION": 98.7906, "RA_OF_ASC_NODE": 115.9705, "ARG_OF_PERICENTER": 55.663, "MEAN_ANOMALY": 305.155, "EPHEMERIS_TYPE": 0, "CLASSIFICATION_TYPE": "U", "NORAD_CAT_ID": 31929, "ELEMENT_SET_NO": 999, "REV_AT_EPOCH": 70644, "BSTAR": 0.00072423089, "MEAN_MOTION_DOT": 2.08e-05, "MEAN_MOTION_DDOT": 0}, "tle": {"line1": "1 31929U 99025CME 25346.62298306  .00002080  00000+0  72423-3 0  9995", "line2": "2 31929  98.7906 115.9705 0074244  55.6630 305.1550 14.34936907706445"}}, "geometry": {"type": "Point", "coordinates": [-54.195674850871704, 19.445282313877]}}]}